{"type": "FeatureCollection", "features": [ {"type": "Feature", "properties": {"norad_id": 38755, "name": "SPOT 6", "group": "resource", "lat": -70.12874658809268, "lon": -147.7717009592808, "alt_km": 705.7027600194351, "timestamp": "2025-12-16T21:38:56.826614+00:00", "meta": {"OBJECT_NAME": "SPOT 6", "OBJECT_ID": "2012-047A", "EPOCH": "2025-12-16T07:19:38.078976", "MEAN_MOTION": 14.58607179, "ECCENTRICITY": 0.00011865, "INCLINATION": 98.1572, "RA_OF_ASC_NODE": 55.0243, "ARG_OF_PERICENTER": 99.6981, "MEAN_ANOMALY": 260.4352, "EPHEMERIS_TYPE": 0, "CLASSIFICATION_TYPE": "U", "NORAD_CAT_ID": 38755, "ELEMENT_SET_NO": 999, "REV_AT_EPOCH": 70639, "BSTAR": 8.9131368e-05, "MEAN_MOTION_DOT": 3.69e-06, "MEAN_MOTION_DDOT": 0}, "tle": {"line1": "1 38755U 12047A   25350.30530184  .00000369  00000+0  89131-4 0  9994", "line2": "2 38755  98.1572  55.0243 0001186  99.6981 260.4352 14.58607179706394"}}, "geometry": {"type": "Point", "coordinates": [-147.7717009592808, -70.12874658809268]}}, {"type": "Feature", "properties": {"norad_id": 39019, "name": "PLEIADES 1B", "group": "resource", "lat": 29.96089381107855, "lon": -111.75648774331104, "alt_km": 695.9849785872157, "timestamp": "2025-12-16T21:38:56.826624+00:00", "meta": {"OBJECT_NAME": "PLEIADES 1B", "OBJECT_ID": "2012-068A", "EPOCH": "2025-12-16T07:47:38.747328", "MEAN_MOTION": 14.58556983, "ECCENTRICITY": 0.00011875, "INCLINATION": 98.1792, "RA_OF_ASC_NODE": 62.9197, "ARG_OF_PERICENTER": 84.0346, "MEAN_ANOMALY": 276.0989, "EPHEMERIS_TYPE": 0, "CLASSIFICATION_TYPE": "U", "NORAD_CAT_ID": 39019, "ELEMENT_SET_NO": 999, "REV_AT_EPOCH": 69419, "BSTAR": 9.4630529e-05, "MEAN_MOTION_DOT": 3.94e-06, "MEAN_MOTION_DDOT": 0}, "tle": {"line1": "1 39019U 12068A   25350.32475402  .00000394  00000+0  94631-4 0  9993", "line2": "2 39019  98.1792  62.9197 0001187  84.0346 276.0989 14.58556983694190"}}, "geometry": {"type": "Point", "coordinates": [-111.75648774331104, 29.96089381107855]}}, {"type": "Feature", "properties": {"norad_id": 39030, "name": "GOKTURK 2", "group": "resource", "lat": -73.42280254820368, "lon": -14.642040180794886, "alt_km": 652.2050136068992, "timestamp": "2025-12-16T21:38:56.826635+00:00", "meta": {"OBJECT_NAME": "GOKTURK 2", "OBJECT_ID": "2012-073A", "EPOCH": "2025-12-16T07:28:24.163392", "MEAN_MOTION": 14.75295776, "ECCENTRICITY": 0.00010931, "INCLINATION": 97.6895, "RA_OF_ASC_NODE": 191.7891, "ARG_OF_PERICENTER": 105.6309, "MEAN_ANOMALY": 254.5022, "EPHEMERIS_TYPE": 0, "CLASSIFICATION_TYPE": "U", "NORAD_CAT_ID": 39030, "ELEMENT_SET_NO": 999, "REV_AT_EPOCH": 69754, "BSTAR": 5.5677586e-05, "MEAN_MOTION_DOT": 3.3e-06, "MEAN_MOTION_DDOT": 0}, "tle": {"line1": "1 39030U 12073A   25350.31139078  .00000330  00000+0  55678-4 0  9995", "line2": "2 39030  97.6895 191.7891 0001093 105.6309 254.5022 14.75295776697548"}}, "geometry": {"type": "Point", "coordinates": [-14.642040180794886, -73.42280254820368]}}, {"type": "Feature", "properties": {"norad_id": 39084, "name": "LANDSAT 8", "group": "resource", "lat": -60.88790268652141, "lon": 73.93460404624054, "alt_km": 710.3020746311695, "timestamp": "2025-12-16T21:38:56.826645+00:00", "meta": {"OBJECT_NAME": "LANDSAT 8", "OBJECT_ID": "2013-008A", "EPOCH": "2025-12-16T07:06:02.024064", "MEAN_MOTION": 14.57117574, "ECCENTRICITY": 0.00010654, "INCLINATION": 98.207, "RA_OF_ASC_NODE": 58.3168, "ARG_OF_PERICENTER": 90.6234, "MEAN_ANOMALY": 269.5086, "EPHEMERIS_TYPE": 0, "CLASSIFICATION_TYPE": "U", "NORAD_CAT_ID": 39084, "ELEMENT_SET_NO": 999, "REV_AT_EPOCH": 67126, "BSTAR": 9.9568609e-05, "MEAN_MOTION_DOT": 4.03e-06, "MEAN_MOTION_DDOT": 0}, "tle": {"line1": "1 39084U 13008A   25350.29585676  .00000403  00000+0  99569-4 0  9997", "line2": "2 39084  98.2070  58.3168 0001065  90.6234 269.5086 14.57117574671269"}}, "geometry": {"type": "Point", "coordinates": [73.93460404624054, -60.88790268652141]}}, {"type": "Feature", "properties": {"norad_id": 39086, "name": "SARAL", "group": "resource", "lat": -77.32801105060331, "lon": -143.22472166677503, "alt_km": 791.9337987414647, "timestamp": "2025-12-16T21:38:56.826656+00:00", "meta": {"OBJECT_NAME": "SARAL", "OBJECT_ID": "2013-009A", "EPOCH": "2025-12-16T08:36:59.936256", "MEAN_MOTION": 14.32758298, "ECCENTRICITY": 0.00029211, "INCLINATION": 98.5502, "RA_OF_ASC_NODE": 174.2422, "ARG_OF_PERICENTER": 101.8548, "MEAN_ANOMALY": 258.2963, "EPHEMERIS_TYPE": 0, "CLASSIFICATION_TYPE": "U", "NORAD_CAT_ID": 39086, "ELEMENT_SET_NO": 999, "REV_AT_EPOCH": 66942, "BSTAR": 6.0739444e-05, "MEAN_MOTION_DOT": 1.22e-06, "MEAN_MOTION_DDOT": 0}, "tle": {"line1": "1 39086U 13009A   25350.35902704  .00000122  00000+0  60739-4 0  9997", "line2": "2 39086  98.5502 174.2422 0002921 101.8548 258.2963 14.32758298669421"}}, "geometry": {"type": "Point", "coordinates": [-143.22472166677503, -77.32801105060331]}}, {"type": "Feature", "properties": {"norad_id": 39150, "name": "GAOFEN-1", "group": "resource", "lat": -8.219465097443154, "lon": 62.6417537402998, "alt_km": 653.9066295735847, "timestamp": "2025-12-16T21:38:56.826666+00:00", "meta": {"OBJECT_NAME": "GAOFEN-1", "OBJECT_ID": "2013-018A", "EPOCH": "2025-12-16T08:40:31.577376", "MEAN_MOTION": 14.76541206, "ECCENTRICITY": 0.00183812, "INCLINATION": 97.9325, "RA_OF_ASC_NODE": 60.9567, "ARG_OF_PERICENTER": 131.8702, "MEAN_ANOMALY": 228.408, "EPHEMERIS_TYPE": 0, "CLASSIFICATION_TYPE": "U", "NORAD_CAT_ID": 39150, "ELEMENT_SET_NO": 999, "REV_AT_EPOCH": 68126, "BSTAR": 0.00010773447, "MEAN_MOTION_DOT": 7.02e-06, "MEAN_MOTION_DDOT": 0}, "tle": {"line1": "1 39150U 13018A   25350.36147659  .00000702  00000+0  10773-3 0  9996", "line2": "2 39150  97.9325  60.9567 0018381 131.8702 228.4080 14.76541206681264"}}, "geometry": {"type": "Point", "coordinates": [62.6417537402998, -8.219465097443154]}}, {"type": "Feature", "properties": {"norad_id": 39160, "name": "VNREDSAT 1", "group": "resource", "lat": -59.80859894751623, "lon": -147.84386546014136, "alt_km": 685.2777928419873, "timestamp": "2025-12-16T21:38:56.826676+00:00", "meta": {"OBJECT_NAME": "VNREDSAT 1", "OBJECT_ID": "2013-021B", "EPOCH": "2025-12-16T07:26:21.607584", "MEAN_MOTION": 14.64928767, "ECCENTRICITY": 0.00012234, "INCLINATION": 97.9375, "RA_OF_ASC_NODE": 45.4598, "ARG_OF_PERICENTER": 77.2496, "MEAN_ANOMALY": 282.8844, "EPHEMERIS_TYPE": 0, "CLASSIFICATION_TYPE": "U", "NORAD_CAT_ID": 39160, "ELEMENT_SET_NO": 999, "REV_AT_EPOCH": 67351, "BSTAR": 0.00011458048, "MEAN_MOTION_DOT": 5.67e-06, "MEAN_MOTION_DDOT": 0}, "tle": {"line1": "1 39160U 13021B   25350.30997231  .00000567  00000+0  11458-3 0  9994", "line2": "2 39160  97.9375  45.4598 0001223  77.2496 282.8844 14.64928767673511"}}, "geometry": {"type": "Point", "coordinates": [-147.84386546014136, -59.80859894751623]}}, {"type": "Feature", "properties": {"norad_id": 39227, "name": "ARIRANG-5 (KOMPSAT-5)", "group": "resource", "lat": -11.3906367920294, "lon": -6.398202522498836, "alt_km": 559.3679962072329, "timestamp": "2025-12-16T21:38:56.826686+00:00", "meta": {"OBJECT_NAME": "ARIRANG-5 (KOMPSAT-5)", "OBJECT_ID": "2013-042A", "EPOCH": "2025-12-16T08:01:54.632640", "MEAN_MOTION": 15.04519964, "ECCENTRICITY": 0.00034853, "INCLINATION": 97.6156, "RA_OF_ASC_NODE": 174.5873, "ARG_OF_PERICENTER": 48.2741, "MEAN_ANOMALY": 311.8783, "EPHEMERIS_TYPE": 0, "CLASSIFICATION_TYPE": "U", "NORAD_CAT_ID": 39227, "ELEMENT_SET_NO": 999, "REV_AT_EPOCH": 67636, "BSTAR": 0.00017472486, "MEAN_MOTION_DOT": 2.387e-05, "MEAN_MOTION_DDOT": 0}, "tle": {"line1": "1 39227U 13042A   25350.33466010  .00002387  00000+0  17472-3 0  9994", "line2": "2 39227  97.6156 174.5873 0003485  48.2741 311.8783 15.04519964676363"}}, "geometry": {"type": "Point", "coordinates": [-6.398202522498836, -11.3906367920294]}}, {"type": "Feature", "properties": {"norad_id": 39418, "name": "SKYSAT-A", "group": "resource", "lat": -48.62535810122598, "lon": 49.48212743967145, "alt_km": 537.9339981020994, "timestamp": "2025-12-16T21:38:56.826696+00:00", "meta": {"OBJECT_NAME": "SKYSAT-A", "OBJECT_ID": "2013-066C", "EPOCH": "2025-12-16T02:48:08.120160", "MEAN_MOTION": 15.11628762, "ECCENTRICITY": 0.00209138, "INCLINATION": 97.4109, "RA_OF_ASC_NODE": 40.2229, "ARG_OF_PERICENTER": 224.2516, "MEAN_ANOMALY": 135.7043, "EPHEMERIS_TYPE": 0, "CLASSIFICATION_TYPE": "U", "NORAD_CAT_ID": 39418, "ELEMENT_SET_NO": 999, "REV_AT_EPOCH": 66081, "BSTAR": 0.00013988694, "MEAN_MOTION_DOT": 2.325e-05, "MEAN_MOTION_DDOT": 0}, "tle": {"line1": "1 39418U 13066C   25350.11676065  .00002325  00000+0  13989-3 0  9992", "line2": "2 39418  97.4109  40.2229 0020913 224.2516 135.7043 15.11628762660816"}}, "geometry": {"type": "Point", "coordinates": [49.48212743967145, -48.62535810122598]}}, {"type": "Feature", "properties": {"norad_id": 39419, "name": "DUBAISAT-2", "group": "resource", "lat": 43.87161027645163, "lon": -26.04040889111057, "alt_km": 538.332159053487, "timestamp": "2025-12-16T21:38:56.826707+00:00", "meta": {"OBJECT_NAME": "DUBAISAT-2", "OBJECT_ID": "2013-066D", "EPOCH": "2025-12-16T05:31:56.451072", "MEAN_MOTION": 15.08396646, "ECCENTRICITY": 0.0010162, "INCLINATION": 97.445, "RA_OF_ASC_NODE": 340.5307, "ARG_OF_PERICENTER": 309.4193, "MEAN_ANOMALY": 50.6136, "EPHEMERIS_TYPE": 0, "CLASSIFICATION_TYPE": "U", "NORAD_CAT_ID": 39419, "ELEMENT_SET_NO": 999, "REV_AT_EPOCH": 65879, "BSTAR": 0.00027008975, "MEAN_MOTION_DOT": 4.143e-05, "MEAN_MOTION_DDOT": 0}, "tle": {"line1": "1 39419U 13066D   25350.23051448  .00004143  00000+0  27009-3 0  9996", "line2": "2 39419  97.4450 340.5307 0010162 309.4193  50.6136 15.08396646658792"}}, "geometry": {"type": "Point", "coordinates": [-26.04040889111057, 43.87161027645163]}}]}